{
  "norad_id": 31118,
  "name": "SAUDISAT 3",
  "history": [
    {
      "epoch": "2026-03-28T19:27:34.676928",
      "apogee_km": 667.8088117628995,
      "perigee_km": 645.586051187247,
      "latitude_deg": 41.437611754800095,
      "longitude_deg": -110.36147007998079,
      "semi_major_axis_km": 7034.834431475073,
      "eccentricity": 0.00157948,
      "inclination_deg": 98.1378,
      "raan_deg": 38.1981,
      "arg_perigee_deg": 120.4829,
      "mean_anomaly_deg": 239.794,
      "mean_motion_rev_day": 14.7137015
    }
  ]
}